{
  "type": "FeatureCollection",
  "features": [
    {
      "type": "Feature",
      "properties": {
        "norad_id": 66174,
        "name": "HTV-X1",
        "group": "stations",
        "lat": -11.149551166991902,
        "lon": 64.22825362105908,
        "alt_km": 417.56956393050314,
        "timestamp": "2025-12-26T17:24:53.475635+00:00",
        "meta_object_name": "HTV-X1",
        "meta_object_id": "2025-241A",
        "meta_epoch": "2025-12-26T05:05:45.767328",
        "meta_mean_motion": 15.49833819,
        "meta_eccentricity": 0.00032367,
        "meta_inclination": 51.6319,
        "meta_ra_of_asc_node": 75.7553,
        "meta_arg_of_pericenter": 303.1667,
        "meta_mean_anomaly": 56.9011,
        "meta_ephemeris_type": 0,
        "meta_classification_type": "U",
        "meta_norad_cat_id": 66174,
        "meta_element_set_no": 999,
        "meta_rev_at_epoch": 51,
        "meta_bstar": 0.00025187037,
        "meta_mean_motion_dot": 0.00013862,
        "meta_mean_motion_ddot": 0,
        "tle_line1": "1 66174U 25241A   25360.21233527  .00013862  00000+0  25187-3 0  9994",
        "tle_line2": "2 66174  51.6319  75.7553 0003236 303.1667  56.9011 15.49833819   512"
      },
      "geometry": {
        "type": "Point",
        "coordinates": [
          64.22825362105908,
          -11.149551166991902
        ]
      }
    },
    {
      "type": "Feature",
      "properties": {
        "norad_id": 66515,
        "name": "SZ-21 MODULE",
        "group": "stations",
        "lat": 0.022340097591123497,
        "lon": -69.2926878710224,
        "alt_km": 375.0562614799883,
        "timestamp": "2025-12-26T17:24:53.475646+00:00",
        "meta_object_name": "SZ-21 MODULE",
        "meta_object_id": "2025-246C",
        "meta_epoch": "2025-12-25T04:36:53.601984",
        "meta_mean_motion": 15.63137537,
        "meta_eccentricity": 0.0004589,
        "meta_inclination": 41.4767,
        "meta_ra_of_asc_node": 300.0489,
        "meta_arg_of_pericenter": 327.9877,
        "meta_mean_anomaly": 32.0683,
        "meta_ephemeris_type": 0,
        "meta_classification_type": "U",
        "meta_norad_cat_id": 66515,
        "meta_element_set_no": 999,
        "meta_rev_at_epoch": 639,
        "meta_bstar": 0.00031272,
        "meta_mean_motion_dot": 0.00029146,
        "meta_mean_motion_ddot": 0,
        "tle_line1": "1 66515U 25246C   25359.19228706  .00029146  00000+0  31272-3 0  9990",
        "tle_line2": "2 66515  41.4767 300.0489 0004589 327.9877  32.0683 15.63137537  6398"
      },
      "geometry": {
        "type": "Point",
        "coordinates": [
          -69.2926878710224,
          0.022340097591123497
        ]
      }
    },
    {
      "type": "Feature",
      "properties": {
        "norad_id": 66645,
        "name": "SHENZHOU-22",
        "group": "stations",
        "lat": -40.5046575784135,
        "lon": -143.5457181932079,
        "alt_km": 395.068856967172,
        "timestamp": "2025-12-26T17:24:53.475656+00:00",
        "meta_object_name": "SHENZHOU-22",
        "meta_object_id": "2025-272A",
        "meta_epoch": "2025-12-26T05:27:30.670848",
        "meta_mean_motion": 15.59708409,
        "meta_eccentricity": 0.00085179,
        "meta_inclination": 41.468,
        "meta_ra_of_asc_node": 294.7909,
        "meta_arg_of_pericenter": 149.5046,
        "meta_mean_anomaly": 210.6289,
        "meta_ephemeris_type": 0,
        "meta_classification_type": "U",
        "meta_norad_cat_id": 66645,
        "meta_element_set_no": 999,
        "meta_rev_at_epoch": 26598,
        "meta_bstar": 0.00023601706,
        "meta_mean_motion_dot": 0.00019151,
        "meta_mean_motion_ddot": 0,
        "tle_line1": "1 66645U 25272A   25360.22743832  .00019151  00000+0  23602-3 0  9994",
        "tle_line2": "2 66645  41.4680 294.7909 0008517 149.5046 210.6289 15.59708409265988"
      },
      "geometry": {
        "type": "Point",
        "coordinates": [
          -143.5457181932079,
          -40.5046575784135
        ]
      }
    },
    {
      "type": "Feature",
      "properties": {
        "norad_id": 66664,
        "name": "SOYUZ-MS 28",
        "group": "stations",
        "lat": -11.14954961578726,
        "lon": 64.22825491181553,
        "alt_km": 417.5695638152083,
        "timestamp": "2025-12-26T17:24:53.475666+00:00",
        "meta_object_name": "SOYUZ-MS 28",
        "meta_object_id": "2025-275A",
        "meta_epoch": "2025-12-26T05:05:45.767328",
        "meta_mean_motion": 15.49833819,
        "meta_eccentricity": 0.00032367,
        "meta_inclination": 51.6319,
        "meta_ra_of_asc_node": 75.7553,
        "meta_arg_of_pericenter": 303.1667,
        "meta_mean_anomaly": 56.9011,
        "meta_ephemeris_type": 0,
        "meta_classification_type": "U",
        "meta_norad_cat_id": 66664,
        "meta_element_set_no": 999,
        "meta_rev_at_epoch": 128,
        "meta_bstar": 0.00025187037,
        "meta_mean_motion_dot": 0.00013862,
        "meta_mean_motion_ddot": 0,
        "tle_line1": "1 66664U 25275A   25360.21233527  .00013862  00000+0  25187-3 0  9995",
        "tle_line2": "2 66664  51.6319  75.7553 0003236 303.1667  56.9011 15.49833819  1281"
      },
      "geometry": {
        "type": "Point",
        "coordinates": [
          64.22825491181553,
          -11.14954961578726
        ]
      }
    },
    {
      "type": "Feature",
      "properties": {
        "norad_id": 66906,
        "name": "1998-067XS",
        "group": "stations",
        "lat": 50.22752559102308,
        "lon": 145.1596360773396,
        "alt_km": 407.6962866405247,
        "timestamp": "2025-12-26T17:24:53.475677+00:00",
        "meta_object_name": "1998-067XS",
        "meta_object_id": "1998-067XS",
        "meta_epoch": "2025-12-26T06:15:17.316576",
        "meta_mean_motion": 15.5130022,
        "meta_eccentricity": 0.00026696,
        "meta_inclination": 51.6322,
        "meta_ra_of_asc_node": 75.3293,
        "meta_arg_of_pericenter": 271.0578,
        "meta_mean_anomaly": 89.0106,
        "meta_ephemeris_type": 0,
        "meta_classification_type": "U",
        "meta_norad_cat_id": 66906,
        "meta_element_set_no": 999,
        "meta_rev_at_epoch": 371,
        "meta_bstar": 0.00043777364,
        "meta_mean_motion_dot": 0.00025789,
        "meta_mean_motion_ddot": 0,
        "tle_line1": "1 66906U 98067XS  25360.26061709  .00025789  00000+0  43777-3 0  9995",
        "tle_line2": "2 66906  51.6322  75.3293 0002669 271.0578  89.0106 15.51300220  3714"
      },
      "geometry": {
        "type": "Point",
        "coordinates": [
          145.1596360773396,
          50.22752559102308
        ]
      }
    },
    {
      "type": "Feature",
      "properties": {
        "norad_id": 66907,
        "name": "1998-067XT",
        "group": "stations",
        "lat": 13.467828946934311,
        "lon": -118.09653710732312,
        "alt_km": 408.34804245307896,
        "timestamp": "2025-12-26T17:24:53.475687+00:00",
        "meta_object_name": "1998-067XT",
        "meta_object_id": "1998-067XT",
        "meta_epoch": "2025-12-24T10:39:56.166048",
        "meta_mean_motion": 15.52879993,
        "meta_eccentricity": 0.00038856,
        "meta_inclination": 51.6313,
        "meta_ra_of_asc_node": 84.2012,
        "meta_arg_of_pericenter": 298.2919,
        "meta_mean_anomaly": 61.7678,
        "meta_ephemeris_type": 0,
        "meta_classification_type": "U",
        "meta_norad_cat_id": 66907,
        "meta_element_set_no": 999,
        "meta_rev_at_epoch": 343,
        "meta_bstar": 0.0010726177,
        "meta_mean_motion_dot": 0.00067981,
        "meta_mean_motion_ddot": 0,
        "tle_line1": "1 66907U 98067XT  25358.44440007  .00067981  00000+0  10726-2 0  9992",
        "tle_line2": "2 66907  51.6313  84.2012 0003885 298.2919  61.7678 15.52879993  3433"
      },
      "geometry": {
        "type": "Point",
        "coordinates": [
          -118.09653710732312,
          13.467828946934311
        ]
      }
    },
    {
      "type": "Feature",
      "properties": {
        "norad_id": 66908,
        "name": "1998-067XU",
        "group": "stations",
        "lat": 8.434126856084177,
        "lon": -113.91429381387219,
        "alt_km": 408.79028515173013,
        "timestamp": "2025-12-26T17:24:53.475700+00:00",
        "meta_object_name": "1998-067XU",
        "meta_object_id": "1998-067XU",
        "meta_epoch": "2025-12-26T05:52:50.075328",
        "meta_mean_motion": 15.53197536,
        "meta_eccentricity": 0.00038191,
        "meta_inclination": 51.6316,
        "meta_ra_of_asc_node": 75.226,
        "meta_arg_of_pericenter": 307.4311,
        "meta_mean_anomaly": 52.6331,
        "meta_ephemeris_type": 0,
        "meta_classification_type": "U",
        "meta_norad_cat_id": 66908,
        "meta_element_set_no": 999,
        "meta_rev_at_epoch": 371,
        "meta_bstar": 0.00091736042,
        "meta_mean_motion_dot": 0.00058677,
        "meta_mean_motion_ddot": 0,
        "tle_line1": "1 66908U 98067XU  25360.24502402  .00058677  00000+0  91736-3 0  9995",
        "tle_line2": "2 66908  51.6316  75.2260 0003819 307.4311  52.6331 15.53197536  3711"
      },
      "geometry": {
        "type": "Point",
        "coordinates": [
          -113.91429381387219,
          8.434126856084177
        ]
      }
    }
  ]
}